TAF EFXX 181500Z 1812/1912 00000KT CAVOK=