FTXX33 XXXX 181500
TAF XYZW 181500Z 1812/1912 00000KT CAVOK=