FTXX33 XXXX 181500
TAF XXXX 181500Z 1812/1912 00000KT CAVOK=