FTXX33 XXXX 181500
TAF EFYY 181500Z 1812/1912 00000KT CAVOK=
TAF EFXX 181500Z 1812/1912 00000KT CAVOK=